[Satellite]
VERSION=1.1
NAME=MOLNIYA 1-36
NICKNAME=MOLNIYA 1-36
TLE1=1 09880U 77021A   19316.38522290  .00001267  00000-0  17616-3 0  9993
TLE2=2 09880  62.2264  58.2410 7472265 281.5300  10.3581  2.00861124210433
STATUS=0
